STARLINK-3121           
1 49428U 21104W   25256.85828370  .00000226  00000+0  32282-4 0  9996
2 49428  53.2175 302.8623 0001191  91.0912 269.0217 15.08841841211944
STARLINK-3138           
1 49430U 21104Y   25258.09209885 -.00000531  00000+0 -15287-4 0  9998
2 49430  53.2170 297.6896 0001376  91.2024 268.9125 15.08829469212125
STARLINK-3153           
1 49431U 21104Z   25258.10951815 -.00000200  00000+0  54926-5 0  9994
2 49431  53.2173 297.5150 0001200  85.9283 274.1846 15.08838906212129
STARLINK-3158           
1 49432U 21104AA  25257.10305698 -.00001100  00000+0 -50997-4 0  9990
2 49432  53.2165 291.8537 0001444  83.0043 277.1114 15.08841307212119
STARLINK-3079           
1 49433U 21104AB  25257.36797941  .00000448  00000+0  46262-4 0  9997
2 49433  53.2168 280.6617 0001310  87.1441 272.9701 15.08834999213381
STARLINK-3134           
1 49434U 21104AC  25258.14263842  .00000093  00000+0  23918-4 0  9992
2 49434  53.2155 297.3380 0001186  81.5816 278.5311 15.08834874213218
STARLINK-3117           
1 49435U 21104AD  25258.03501676 -.00000227  00000+0  38138-5 0  9992
2 49435  53.2152 277.6659 0001303  84.5457 275.5684 15.08835253212391
STARLINK-3049           
1 49436U 21104AE  25257.43790023  .00000874  00000+0  72976-4 0  9996
2 49436  53.2161 280.3471 0001333  77.4287 282.6854 15.08849358212300
STARLINK-3130           
1 49437U 21104AF  25258.02670001 -.00000011  00000+0  17398-4 0  9997
2 49437  53.2160 277.7042 0001302  91.8120 268.3021 15.08833272212390
STARLINK-3044           
1 49438U 21104AG  25258.08284589 -.00000274  00000+0  88302-6 0  9992
2 49438  53.2156 277.3859 0001282  83.2779 276.8359 15.08834572212404
STARLINK-3105           
1 49440U 21104AJ  25258.08557841 -.00000077  00000+0  13265-4 0  9994
2 49440  53.2150 277.4402 0001169  82.6539 277.4586 15.08834722212403
STARLINK-3128           
1 49441U 21104AK  25257.47101237  .00000674  00000+0  60445-4 0  9995
2 49441  53.2167 280.1981 0001363  82.8862 277.2285 15.08839564212315
STARLINK-3098           
1 49442U 21104AL  25258.01566104 -.00000660  00000+0 -23382-4 0  9991
2 49442  53.2161 277.7540 0001395  85.1960 274.9192 15.08836110212396
STARLINK-3136           
1 49443U 21104AM  25257.33488319 -.00003389  00000+0 -19510-3 0  9995
2 49443  53.2148 280.8104 0001599  70.6445 289.4720 15.08810017212291
STARLINK-3126           
1 49444U 21104AN  25258.07917526 -.00000840  00000+0 -34696-4 0  9997
2 49444  53.2150 277.4796 0001382  86.5019 273.6132 15.08835515212402
STARLINK-3122           
1 49445U 21104AP  25257.46742834 -.00000606  00000+0 -20011-4 0  9994
2 49445  53.2174 290.6122 0001244  83.9925 276.1209 15.08834200212169
STARLINK-3099           
1 49446U 21104AQ  25258.07453728 -.00000100  00000+0  11821-4 0  9991
2 49446  53.2160 277.4911 0001260  85.3934 274.7202 15.08834737212407
STARLINK-3115           
1 49447U 21104AR  25258.08465803 -.00000540  00000+0 -15859-4 0  9994
2 49447  53.2181 287.4430 0001344  86.1975 273.9171 15.08841095212260
STARLINK-3137           
1 49449U 21104AT  25258.07456754  .00000488  00000+0  48769-4 0  9995
2 49449  53.2167 287.4350 0001228  84.6471 275.4661 15.08836521212261
STARLINK-3127           
1 49450U 21104AU  25257.09841712  .00000733  00000+0  64142-4 0  9996
2 49450  53.2177 291.9099 0001281  69.6084 290.5046 15.08846053212374
STARLINK-3125           
1 49451U 21104AV  25258.07729660  .00000032  00000+0  20116-4 0  9998
2 49451  53.2168 287.4758 0001268  88.6174 271.4964 15.08838148212264
STARLINK-3150           
1 49452U 21104AW  25257.47105935  .00000724  00000+0  63585-4 0  9990
2 49452  53.2168 290.2372 0001288  89.2474 270.8665 15.08834555212170
STARLINK-3129           
1 49453U 21104AX  25257.48210396 -.00000129  00000+0  99823-5 0  9995
2 49453  53.2172 290.2356 0001300  85.8579 274.2562 15.08837530212171
STARLINK-3160           
1 49454U 21104AY  25258.07361628  .00000263  00000+0  34615-4 0  9992
2 49454  53.2163 287.4912 0001275  85.7519 274.3619 15.08837267212263
STARLINK-3145           
1 49455U 21104AZ  25257.39651277  .00002484  00000+0  17410-3 0  9999
2 49455  53.2155 290.5343 0001514  81.6542 278.4622 15.08845093212169
STARLINK-3124           
1 49456U 21104BA  25257.47474191 -.00000402  00000+0 -71468-5 0  9992
2 49456  53.2169 290.2289 0001262  87.5242 272.5894 15.08836489212179
STARLINK-3132           
1 49457U 21104BB  25258.05617755  .00000122  00000+0  25754-4 0  9996
2 49457  53.2171 287.5843 0001312  91.1564 268.9578 15.08836091212269
STARLINK-3156           
1 49458U 21104BC  25257.40019690  .00003767  00000+0  25480-3 0  9992
2 49458  53.2161 290.5172 0001722  92.0883 268.0307 15.08821450212160
STARLINK-3141           
1 49459U 21104BD  25257.38914234 -.00000492  00000+0 -12800-4 0  9995
2 49459  53.2176 290.5652 0001554  71.0330 289.0830 15.08832824212168
STARLINK-3140           
1 49460U 21104BE  25258.04785673 -.00000392  00000+0 -65496-5 0  9993
2 49460  53.2170 287.6083 0001320  86.5857 273.5286 15.08837303212255
GLOBAL-14               
1 49469U 21106A   25257.97001601  .00013580  00000+0  38036-3 0  9996
2 49469  42.0070 109.5138 0008488 279.0699  80.9179 15.36391416215599
GAOFEN-11 03            
1 49492U 21107A   25258.33702409  .00008954  00000+0  37401-3 0  9992
2 49492  97.2529 307.4406 0006929 322.6217  37.4538 15.23831794212780
GAOFEN-3 02             
1 49495U 21109A   25258.31187751  .00000094  00000+0  41630-4 0  9999
2 49495  98.4145 265.2833 0003726  93.8067 266.3549 14.42215055200695
COSMOS 2552             
1 49503U 21113A   25257.26120490 -.00000207  00000+0  00000+0 0  9992
2 49503  62.9077 233.1834 6555469 272.5581  19.5788  2.00605901 27862
ZHONGXING-1D            
1 49505U 21114A   25258.25354885 -.00000352  00000+0  00000+0 0  9993
2 49505   0.0575 305.6384 0002421 327.7728 302.4934  1.00272914 14079
STARLINK-3219           
1 49724U 21115A   25258.18312587 -.00000401  00000+0 -71325-5 0  9992
2 49724  53.2173 217.2203 0001536  89.6110 270.5058 15.08834144209035
STARLINK-3218           
1 49725U 21115B   25258.27143058  .00000582  00000+0  54642-4 0  9998
2 49725  53.2153 216.7089 0001453  86.9068 273.2090 15.08838773209050
STARLINK-3242           
1 49727U 21115D   25256.63657622 -.00000639  00000+0 -22087-4 0  9998
2 49727  53.2157 233.9431 0001699  90.4505 269.6682 15.08833412208663
STARLINK-3240           
1 49728U 21115E   25257.23641725  .00000101  00000+0  24417-4 0  9994
2 49728  53.2152 231.2510 0001457  86.6381 273.4778 15.08836549208752
STARLINK-3251           
1 49729U 21115F   25258.28890156 -.00000420  00000+0 -82930-5 0  9996
2 49729  53.2156 226.4099 0001432  97.7576 262.3579 15.08827324208912
STARLINK-3249           
1 49730U 21115G   25258.19323799  .00000858  00000+0  71993-4 0  9991
2 49730  53.2188 227.1484 0001474  86.6555 273.4606 15.08842163208894
STARLINK-3246           
1 49732U 21115J   25258.20059532 -.00000166  00000+0  76563-5 0  9998
2 49732  53.2152 227.0771 0001480  86.8820 273.2341 15.08837136208897
STARLINK-3252           
1 49733U 21115K   25258.17849677  .00000230  00000+0  32569-4 0  9990
2 49733  53.2200 227.0232 0001610  81.8741 278.2434 15.08841196208895
STARLINK-3238           
1 49734U 21115L   25258.26408152 -.00001177  00000+0 -55927-4 0  9996
2 49734  53.2184 216.6643 0001358  94.8484 265.2663 15.08821990209053
STARLINK-3113           
1 49735U 21115M   25258.17112312  .00001013  00000+0  81746-4 0  9992
2 49735  53.2170 226.9393 0001354  88.3813 271.7335 15.08840589208899
STARLINK-3148           
1 49736U 21115N   25258.26036171  .00000683  00000+0  60978-4 0  9997
2 49736  53.2146 216.5359 0001476  90.4257 269.6905 15.08839070209052
STARLINK-3225           
1 49737U 21115P   25258.26773818 -.00000145  00000+0  90122-5 0  9993
2 49737  53.2156 216.6195 0001451  88.8207 271.2951 15.08837327209055
STARLINK-3143           
1 49738U 21115Q   25258.16199441  .00000309  00000+0  37506-4 0  9994
2 49738  53.2169 217.3031 0001420  85.8568 274.2587 15.08841554209033
STARLINK-3155           
1 49739U 21115R   25258.18953432  .00000234  00000+0  32792-4 0  9994
2 49739  53.2186 226.9733 0001436  85.0682 275.0474 15.08841566208894
STARLINK-3226           
1 49740U 21115S   25258.15092584  .00000810  00000+0  68976-4 0  9998
2 49740  53.2173 217.1183 0001489  84.5049 275.6113 15.08844162209030
STARLINK-3244           
1 49741U 21115T   25258.14725721  .00000228  00000+0  32414-4 0  9995
2 49741  53.2174 217.1734 0001378  91.0084 269.1066 15.08837173209032
STARLINK-3202           
1 49742U 21115U   25258.02853931  .00001072  00000+0  85417-4 0  9997
2 49742  53.2160 217.6955 0001384  88.5588 271.5562 15.08847748209010
STARLINK-3239           
1 49743U 21115V   25258.14356798  .00000334  00000+0  39088-4 0  9993
2 49743  53.2165 217.1117 0001442  91.9076 268.2082 15.08849858209032
STARLINK-3231           
1 49744U 21115W   25258.15827867  .00001889  00000+0  13677-3 0  9996
2 49744  53.2161 217.0074 0001524  78.1342 281.9821 15.08834978209034
STARLINK-3241           
1 49745U 21115X   25258.15461404  .00001377  00000+0  10456-3 0  9992
2 49745  53.2172 217.1016 0001242  81.6199 278.4934 15.08850237209032
STARLINK-3233           
1 49746U 21115Y   25258.17573877 -.00001126  00000+0 -52631-4 0  9999
2 49746  53.2184 217.0343 0001672  94.4634 265.6549 15.08845479209033
STARLINK-3247           
1 49747U 21115Z   25257.30357237  .00000816  00000+0  69371-4 0  9996
2 49747  53.2164 220.9515 0001450  86.3967 273.7191 15.08842252208903
STARLINK-3248           
1 49748U 21115AA  25258.14256766 -.00000216  00000+0  44953-5 0  9990
2 49748  53.2163 216.7590 0001502  88.1655 271.9509 15.08836726209049
STARLINK-3250           
1 49749U 21115AB  25258.26136312  .00000402  00000+0  43326-4 0  9996
2 49749  53.2163 216.8896 0001577  70.6716 289.4447 15.08837203209042
